#dP2021  8  4  6  0  0.00000000      96 __u+U ITR00 EXT  IAC
## 2169 280800.00000000   900.00000000 59430 0.2500000000000
+  115   C07C08C09C10C11C12C13C14C16C19C20C21C22C23C24C25C26
+        C27C28C29C30C32C33C34C35C36C37C38C40C41C42C43C44C45
+        C46E01E02E03E04E05E07E08E09E11E12E13E14E15E18E19E21
+        E24E25E26E27E30E31E33E36G01G02G03G04G05G06G07G08G09
+        G10G11G12G13G14G15G16G17G18G19G20G21G22G23G24G25G26
+        G27G28G29G30G31G32J01J02J03R01R02R03R04R05R07R08R09
+        R11R12R13R14R15R16R17R18R19R20R21R22R24  0  0  0  0
++         9  9 10 10  9  8  8 12 10 10  9  8  7  6  8  8 10
++         8  9  9  8  6  9  8  9  8  8  8 10  8  7 10 10 10
++         8  9  8  8  6  7  9  7  8  7  7  8  7  8  7 10  8
++         8  7  7  7  7  7  8  7  6  8  7  7  8  7  8  7  6
++         8  7  7  7  7  7  8  8  7  8  8  9  7  7  6  7  8
++         7  8  9  7  7  8 11  9 10  9 10 10  7  9  8 10  7
++         8  8  8  9  9  7  7 11  8  9  9  8  9  0  0  0  0
%c M  cc GPS ccc cccc cccc cccc cccc ccccc ccccc ccccc ccccc
%c cc cc ccc ccc cccc cccc cccc cccc ccccc ccccc ccccc ccccc
%f  0.0000000  0.000000000  0.00000000000  0.000000000000000
%f  0.0000000  0.000000000  0.00000000000  0.000000000000000
%i    0    0    0    0      0      0      0      0         0
%i    0    0    0    0      0      0      0      0         0
/* IAC                                ULTRA-RAPID PREDICTION
/* S/V CLOCKS ARE ALIGNED TO GNSS TIME                      
/* G:C1WC2W R:C1PC2P E:C1XC5X C:C2IC6I J:C1CC2S             
/* PCV:IGS14_2163 OL/AL:FES2004  NONE     YN ORB:CoN CLK:CoN
*  2021 08 05  4 15  0.00000000
PC07 -13257.273628  37938.941383 -11451.456824     45.156539
PC08  -6239.730063  21824.071757  35690.480691   -915.398860
PC09  -7349.542970  26021.401591 -32152.192318     -2.760251
PC10  -3940.633614  41707.989423     47.369444    -11.675612
PC11 -26582.652655    835.192198  -8313.948042    498.517872
PC12 -14667.305747 -10643.059157 -21183.659653    791.037653
PC13   6981.062632  29500.726288  29514.511264    362.127790
PC14 -16142.308415   -704.212613  22767.720960    746.373129
PC16 -20185.358236  26282.497274 -26071.984082   -878.243075
PC19  16764.907667 -10592.701011 -19620.450325    935.079103
PC20  13486.563960   9593.634349 -22451.948979   -827.025869
PC21  -1884.820066 -25163.051812  11959.348355   -938.746980
PC22  10502.058612 -25319.522469  -5324.509075   -949.540228
PC23  -5961.575638  16265.666032 -21863.130221   -963.481289
PC24 -21823.334392 -16492.618367  -5465.788723   -964.179964
PC25 -19506.532029   1010.208296 -19924.122325   -875.182734
PC26 -12385.983807 -22567.102470  10729.289269    868.874574
PC27   4764.672519  15132.830161  22934.698489    575.739219
PC28 -15708.894378  15880.400171  16719.390268    -42.311536
PC29  26629.831034  -8322.382934   -686.592295    429.010447
PC30  22210.969609   5095.146681  16088.673470    476.384020
PC32   2046.933177  25145.696228 -11900.662013   -928.548838
PC33 -16745.273989  10535.799045  19675.085192   -952.125709
PC34 -22743.802802  -4632.290245 -15517.902682   -612.249763
PC35  15478.686884 -16392.449493 -16436.178445   -154.504448
PC36  19727.887700   -191.952817  19767.736759   -739.755972
PC37  11138.795596  22858.681271 -11488.001389   -861.982721
PC38  -5675.434709  24609.374112  33793.167717    166.419847
PC40 -10234.710004  40747.317161  -2386.664812    187.249572
PC41 -10647.343007  25167.294706   5703.591740   -969.204720
PC42 -13202.763430 -10518.104902  22264.942619   -928.146103
PC43 -26793.366746   7835.654569    115.684698   -853.381888
PC44  -5128.254478 -15161.079976 -22872.199735    324.932579
PC45   5725.534147 -16300.235184  21924.040880    512.139738
PC46  22119.160808  15744.691827   6534.911353    146.737317
PE01 -15722.724982   5195.573758 -24527.474170  -1164.934992
PE02  15681.027954  -5346.921039  24534.461236    237.739311
PE03  23637.593553 -13708.748189 -11401.744871   -460.258216
PE04 -15778.378339  24110.917223  -6756.985950   -828.241405
PE05  17737.964545   4937.065113 -23174.261834   -259.723879
PE07  -1570.871403 -20494.104041  21312.295988   -570.000017
PE08  15448.411620 -24234.629941   7123.980453   5959.192316
PE09   1761.757560  20275.063692 -21482.728972   5576.832039
PE11  12097.333416  16787.327620  21147.612547   5622.585061
PE12 -10818.058225  13641.021862  23933.025300   5076.194034
PE13 -11678.028835 -16741.599080 -21438.764336    419.892257
PE14  14245.064417   8163.807180  17822.161868  -1524.520921
PE15  10723.639035 -13619.472813 -23994.309561    799.694860
PE18 -11914.854786 -16541.202487 -24661.524264  -1671.630708
PE19 -23631.198983  11779.333446  13384.173512    344.331218
PE21 -17585.463663 -15432.017328 -18128.881178   -680.189470
PE24   8646.932827  28318.149899     61.427270  -1045.699867
PE25  17557.398368  15623.245380  18005.716348   -542.226492
PE26 -27456.163228  -9659.527760  -5368.696835   1498.258082
PE27  -9353.120092 -28065.590199   -966.373229    -90.970885
PE30   5200.514048 -23400.563869  17358.689838   2727.527487
PE31  -4296.159674  24110.052972 -16609.999737   -484.043733
PE33 -26756.178802   2483.350945  12413.973514   -466.703917
PE36  27145.178947   9998.957956   6265.710073   -244.037699
PG01 -21465.855693 -14418.847577  -7074.151843    607.101816
PG02    425.350303  16099.827858  21766.235259   -624.290587
PG03 -11921.109862 -19330.706377  13764.979716   -243.219069
PG04 -14580.601274  -7573.648127  20888.008536   -203.518441
PG05   6631.905532  25409.942867  -3457.709628    -50.110251
PG06 -12292.158782  10167.882039  21301.833608     50.844058
PG07 -25246.878031  -5646.989334  -6701.294495    218.182488
PG08  -4737.713209 -15019.756293 -21352.976458    -31.410713
PG09 -21579.378222   3373.957687  15067.168890   -357.878183
PG10  12299.884380 -12016.950418 -20047.098625   -176.095049
PG11  -1175.233265  15957.692308  21184.074307     29.521109
PG12  10353.834130  20241.068292  13590.805418    -78.438587
PG13  -4485.208568  17801.391616 -19278.517177    167.049219
PG14 -12915.967809  12300.786805 -19668.819219     31.038616
PG15   7270.871962  14871.992719 -21098.177719   -130.616598
PG16    318.806915 -26228.358380   1809.402357   -368.520203
PG17 -22826.498129  13279.058770  -2429.292607    484.522361
PG18  24501.253013   3611.227670  -9722.677581    335.554090
PG19 -19875.802888  16452.398540   5681.321153     35.484221
PG20    273.823077  25148.412347   8906.725370    519.818471
PG21 -17027.469144 -15410.959333 -13079.328118    135.414237
PG22 -10648.952885 -23500.661096   6921.123030   -546.123814
PG23  15310.908591    664.846187 -21721.042781     75.074951
PG24  18893.418603  15298.940386 -11410.940383    198.508103
PG25  15010.933878   9564.468147  19533.527509    185.708746
PG26   5850.470786 -22176.808721  13096.851584    118.930601
PG27   5975.415987 -19241.946553 -17291.181285   -173.568326
PG28 -10256.257044  18293.894076 -15864.471799    525.533937
PG29  20748.863149   -328.356489  16564.622887   -391.276581
PG30 -20213.742464   4411.317563 -16714.498511   -458.718410
PG31  11095.604115 -11453.136085  21212.104933   -132.532641
PG32  21057.017508 -16028.197171   -210.823652      9.876126
PJ01 -32000.891602  26167.281708  13101.041520   -431.823740
PJ02 -20151.086261  23327.523599 -24224.643044     -1.294385
PJ03 -29885.078029  26883.276477  17632.265329     -0.557794
PR01  -2115.945066  21153.039613 -14086.495829     83.379215
PR02   9846.916524   4578.714724 -23040.279614    488.587863
PR03  14729.155020 -12933.610830 -16250.391694     40.727113
PR04  11237.199335 -22891.412019   -437.051513     98.850219
PR05   1597.536785 -20088.060687  15635.203535     76.594057
PR07 -14807.709565  13517.185195  15833.797315    -41.777412
PR08 -11238.499886  22907.390122    499.952470    -60.209159
PR09 -17393.748921 -14880.620163 -11314.110371      6.476082
PR11  -1008.275603  15224.170608 -20421.626315     45.774776
PR12  11595.805950  21866.573540  -6168.468481    251.055114
PR13  17240.586855  15444.435974  10704.624059    -58.663984
PR14  12624.400423   -622.349805  22171.063674     67.287481
PR15    873.497804 -15688.604001  20122.203159    102.284344
PR16 -12633.327884 -21491.869550   5069.742728    -19.033008
PR17  24632.477621  -4211.299239  -5231.568224    447.091443
PR18  13685.430659  -9592.966782 -19244.434417     85.845503
PR19  -3192.347247 -10167.207129 -23180.826952   -154.217883
PR20 -21643.464277  -4735.157019 -12671.961048    -53.613100
PR21 -24205.567625   4634.799785   6506.405139   -229.123317
PR22 -12899.721400   9655.869058  19785.715208   -126.242488
PR24  22132.910332   4306.814283  11957.242724     53.256934
EOF
